IRIDIUM 150             
1 43257U 18030J   24326.55793544  .00000514  00000+0  17659-3 0  9992
2 43257  86.3993 169.8268 0001895  77.9610 282.1798 14.34218553348103
IRIDIUM 143             
1 43258U 18030K   24326.12026930  .00000491  00000+0  16839-3 0  9997
2 43258  86.3998 170.0793 0001818  70.9957 289.1436 14.34220231347952
IRIDIUM 161             
1 43478U 18047C   24327.05091782  .00000409  00000+0  11558-3 0  9991
2 43478  86.4472 327.5740 0002325  86.0130 274.1337 14.43277216342617
IRIDIUM 152             
1 43479U 18047D   24327.06975169  .00000336  00000+0  11288-3 0  9992
2 43479  86.3946 327.4256 0002429  91.7153 268.4321 14.34218641340497
IRIDIUM 147             
1 43480U 18047E   24327.00631821  .00000334  00000+0  11228-3 0  9994
2 43480  86.3947 327.4471 0002407  98.3514 261.7955 14.34219218340477
IRIDIUM 110             
1 43481U 18047F   24327.08243333  .00000323  00000+0  10833-3 0  9999
2 43481  86.3949 327.4923 0002701  93.9912 266.1592 14.34220345340471
IRIDIUM 162             
1 43482U 18047G   24327.04461253  .00000398  00000+0  11228-3 0  9990
2 43482  86.4470 327.4746 0002532  90.9813 269.1678 14.43273595342604
IRIDIUM 160             
1 43569U 18061A   24326.88872651  .00000674  00000+0  23356-3 0  9993
2 43569  86.3934 295.9309 0002256  93.3844 266.7610 14.34219964331340
